{
  "type": "FeatureCollection",
  "features": [
    {
      "type": "Feature",
      "properties": {
        "norad_id": 63632,
        "name": "SHENZHOU-20 (SZ-20)",
        "group": "stations",
        "lat": -41.41619099126107,
        "lon": -30.25289180666331,
        "alt_km": 391.60949261751466,
        "timestamp": "2025-12-05T04:52:14.160975+00:00",
        "meta_object_name": "SHENZHOU-20 (SZ-20)",
        "meta_object_id": "2025-082A",
        "meta_epoch": "2025-12-04T15:25:24.990240",
        "meta_mean_motion": 15.58669844,
        "meta_eccentricity": 0.00099747,
        "meta_inclination": 41.4682,
        "meta_ra_of_asc_node": 65.8455,
        "meta_arg_of_pericenter": 328.5002,
        "meta_mean_anomaly": 31.5238,
        "meta_ephemeris_type": 0,
        "meta_classification_type": "U",
        "meta_norad_cat_id": 63632,
        "meta_element_set_no": 999,
        "meta_rev_at_epoch": 25530,
        "meta_bstar": 0.00047697443,
        "meta_mean_motion_dot": 0.00037639,
        "meta_mean_motion_ddot": 0,
        "tle_line1": "1 63632U 25082A   25338.64265035  .00037639  00000+0  47697-3 0  9992",
        "tle_line2": "2 63632  41.4682  65.8455 0009974 328.5002  31.5238 15.58669844255302"
      },
      "geometry": {
        "type": "Point",
        "coordinates": [
          -30.25289180666331,
          -41.41619099126107
        ]
      }
    },
    {
      "type": "Feature",
      "properties": {
        "norad_id": 64751,
        "name": "PROGRESS-MS 31",
        "group": "stations",
        "lat": 50.74581239453824,
        "lon": -104.37395060573792,
        "alt_km": 413.06992275234734,
        "timestamp": "2025-12-05T04:52:14.160985+00:00",
        "meta_object_name": "PROGRESS-MS 31",
        "meta_object_id": "2025-146A",
        "meta_epoch": "2025-12-04T13:02:29.700384",
        "meta_mean_motion": 15.49306035,
        "meta_eccentricity": 0.00035956,
        "meta_inclination": 51.6299,
        "meta_ra_of_asc_node": 183.0583,
        "meta_arg_of_pericenter": 202.7086,
        "meta_mean_anomaly": 157.3744,
        "meta_ephemeris_type": 0,
        "meta_classification_type": "U",
        "meta_norad_cat_id": 64751,
        "meta_element_set_no": 999,
        "meta_rev_at_epoch": 675,
        "meta_bstar": 0.00029317999,
        "meta_mean_motion_dot": 0.0001591,
        "meta_mean_motion_ddot": 0,
        "tle_line1": "1 64751U 25146A   25338.54339931  .00015910  00000+0  29318-3 0  9990",
        "tle_line2": "2 64751  51.6299 183.0583 0003595 202.7086 157.3744 15.49306035  6757"
      },
      "geometry": {
        "type": "Point",
        "coordinates": [
          -104.37395060573792,
          50.74581239453824
        ]
      }
    },
    {
      "type": "Feature",
      "properties": {
        "norad_id": 64786,
        "name": "TIANZHOU-9",
        "group": "stations",
        "lat": -41.41619103378428,
        "lon": -30.25288998926548,
        "alt_km": 391.60949247427925,
        "timestamp": "2025-12-05T04:52:14.160996+00:00",
        "meta_object_name": "TIANZHOU-9",
        "meta_object_id": "2025-149A",
        "meta_epoch": "2025-12-04T15:25:24.990240",
        "meta_mean_motion": 15.58669844,
        "meta_eccentricity": 0.00099747,
        "meta_inclination": 41.4682,
        "meta_ra_of_asc_node": 65.8455,
        "meta_arg_of_pericenter": 328.5002,
        "meta_mean_anomaly": 31.5238,
        "meta_ephemeris_type": 0,
        "meta_classification_type": "U",
        "meta_norad_cat_id": 64786,
        "meta_element_set_no": 999,
        "meta_rev_at_epoch": 25530,
        "meta_bstar": 0.00047697443,
        "meta_mean_motion_dot": 0.00037639,
        "meta_mean_motion_ddot": 0,
        "tle_line1": "1 64786U 25149A   25338.64265035  .00037639  00000+0  47697-3 0  9997",
        "tle_line2": "2 64786  41.4682  65.8455 0009974 328.5002  31.5238 15.58669844255303"
      },
      "geometry": {
        "type": "Point",
        "coordinates": [
          -30.25288998926548,
          -41.41619103378428
        ]
      }
    },
    {
      "type": "Feature",
      "properties": {
        "norad_id": 65077,
        "name": "CREW DRAGON 11",
        "group": "stations",
        "lat": 50.74581264265185,
        "lon": -104.37394860069045,
        "alt_km": 413.06992267252645,
        "timestamp": "2025-12-05T04:52:14.161005+00:00",
        "meta_object_name": "CREW DRAGON 11",
        "meta_object_id": "2025-166A",
        "meta_epoch": "2025-12-04T13:02:29.700384",
        "meta_mean_motion": 15.49306035,
        "meta_eccentricity": 0.00035956,
        "meta_inclination": 51.6299,
        "meta_ra_of_asc_node": 183.0583,
        "meta_arg_of_pericenter": 202.7086,
        "meta_mean_anomaly": 157.3744,
        "meta_ephemeris_type": 0,
        "meta_classification_type": "U",
        "meta_norad_cat_id": 65077,
        "meta_element_set_no": 999,
        "meta_rev_at_epoch": 214,
        "meta_bstar": 0.00029317999,
        "meta_mean_motion_dot": 0.0001591,
        "meta_mean_motion_ddot": 0,
        "tle_line1": "1 65077U 25166A   25338.54339931  .00015910  00000+0  29318-3 0  9994",
        "tle_line2": "2 65077  51.6299 183.0583 0003595 202.7086 157.3744 15.49306035  2148"
      },
      "geometry": {
        "type": "Point",
        "coordinates": [
          -104.37394860069045,
          50.74581264265185
        ]
      }
    },
    {
      "type": "Feature",
      "properties": {
        "norad_id": 65304,
        "name": "DRAGON CRS-33",
        "group": "stations",
        "lat": 50.74581276670878,
        "lon": -104.3739475981655,
        "alt_km": 413.06992263261236,
        "timestamp": "2025-12-05T04:52:14.161015+00:00",
        "meta_object_name": "DRAGON CRS-33",
        "meta_object_id": "2025-186A",
        "meta_epoch": "2025-12-04T13:02:29.700384",
        "meta_mean_motion": 15.49306035,
        "meta_eccentricity": 0.00035956,
        "meta_inclination": 51.6299,
        "meta_ra_of_asc_node": 183.0583,
        "meta_arg_of_pericenter": 202.7086,
        "meta_mean_anomaly": 157.3744,
        "meta_ephemeris_type": 0,
        "meta_classification_type": "U",
        "meta_norad_cat_id": 65304,
        "meta_element_set_no": 999,
        "meta_rev_at_epoch": 11,
        "meta_bstar": 0.00029317999,
        "meta_mean_motion_dot": 0.0001591,
        "meta_mean_motion_ddot": 0,
        "tle_line1": "1 65304U 25186A   25338.54339931  .00015910  00000+0  29318-3 0  9999",
        "tle_line2": "2 65304  51.6299 183.0583 0003595 202.7086 157.3744 15.49306035   116"
      },
      "geometry": {
        "type": "Point",
        "coordinates": [
          -104.3739475981655,
          50.74581276670878
        ]
      }
    },
    {
      "type": "Feature",
      "properties": {
        "norad_id": 65586,
        "name": "PROGRESS-MS 32",
        "group": "stations",
        "lat": 50.74581289076557,
        "lon": -104.37394659564171,
        "alt_km": 413.06992259270646,
        "timestamp": "2025-12-05T04:52:14.161025+00:00",
        "meta_object_name": "PROGRESS-MS 32",
        "meta_object_id": "2025-204A",
        "meta_epoch": "2025-12-04T13:02:29.700384",
        "meta_mean_motion": 15.49306035,
        "meta_eccentricity": 0.00035956,
        "meta_inclination": 51.6299,
        "meta_ra_of_asc_node": 183.0583,
        "meta_arg_of_pericenter": 202.7086,
        "meta_mean_anomaly": 157.3744,
        "meta_ephemeris_type": 0,
        "meta_classification_type": "U",
        "meta_norad_cat_id": 65586,
        "meta_element_set_no": 999,
        "meta_rev_at_epoch": 27,
        "meta_bstar": 0.00029317999,
        "meta_mean_motion_dot": 0.0001591,
        "meta_mean_motion_ddot": 0,
        "tle_line1": "1 65586U 25204A   25338.54339931  .00015910  00000+0  29318-3 0  9992",
        "tle_line2": "2 65586  51.6299 183.0583 0003595 202.7086 157.3744 15.49306035   275"
      },
      "geometry": {
        "type": "Point",
        "coordinates": [
          -104.37394659564171,
          50.74581289076557
        ]
      }
    },
    {
      "type": "Feature",
      "properties": {
        "norad_id": 65616,
        "name": "CYGNUS NG-23",
        "group": "stations",
        "lat": 50.745813002416625,
        "lon": -104.37394569337073,
        "alt_km": 413.0699225567869,
        "timestamp": "2025-12-05T04:52:14.161034+00:00",
        "meta_object_name": "CYGNUS NG-23",
        "meta_object_id": "2025-208A",
        "meta_epoch": "2025-12-04T13:02:29.700384",
        "meta_mean_motion": 15.49306035,
        "meta_eccentricity": 0.00035956,
        "meta_inclination": 51.6299,
        "meta_ra_of_asc_node": 183.0583,
        "meta_arg_of_pericenter": 202.7086,
        "meta_mean_anomaly": 157.3744,
        "meta_ephemeris_type": 0,
        "meta_classification_type": "U",
        "meta_norad_cat_id": 65616,
        "meta_element_set_no": 999,
        "meta_rev_at_epoch": 22,
        "meta_bstar": 0.00029317999,
        "meta_mean_motion_dot": 0.0001591,
        "meta_mean_motion_ddot": 0,
        "tle_line1": "1 65616U 25208A   25338.54339931  .00015910  00000+0  29318-3 0  9990",
        "tle_line2": "2 65616  51.6299 183.0583 0003595 202.7086 157.3744 15.49306035   224"
      },
      "geometry": {
        "type": "Point",
        "coordinates": [
          -104.37394569337073,
          50.745813002416625
        ]
      }
    }
  ]
}